EUTELSAT 7A             
1 28187U 04008A   25332.48031001  .00000124  00000+0  00000+0 0  9995
2 28187   5.3189  74.4103 0001089 194.6175 192.3163  1.00272581 79348
EUTELSAT 174A           
1 28924U 05052A   25333.15671111  .00000031  00000+0  00000+0 0  9998
2 28924   3.7106  79.0102 0006359 167.9210  51.7885  1.00270294 50321
EUTELSAT HOTBIRD 13B    
1 29270U 06032A   25333.22789191  .00000177  00000+0  00000+0 0  9999
2 29270   1.1425  84.4838 0003546 157.3182 301.7174  1.00269765 45306
EUTELSAT HOTBIRD 13C    
1 33459U 08065A   25333.21402515 -.00000241  00000+0  00000+0 0  9995
2 33459   2.4335  81.5674 0000955 169.7826 217.4404  1.00050683 45343
EUTELSAT 36B            
1 36101U 09065A   25333.23127193  .00000133  00000+0  00000+0 0  9990
2 36101   0.0463  19.4612 0006182 230.0028 312.6758  1.00271993 58705
EUTELSAT KA-SAT 9A      
1 37258U 10069A   25333.22312522  .00000082  00000+0  00000+0 0  9994
2 37258   0.0557 324.7284 0001041 229.5791 323.4121  1.00268649 42003
EUTELSAT 7 WEST A       
1 37816U 11051A   25333.21983186 -.00000039  00000+0  00000+0 0  9998
2 37816   0.0626 355.0438 0006000 226.5594 278.6075  1.00271596 51875
EUTELSAT 16A            
1 37836U 11057A   25333.22442522  .00000125  00000+0  00000+0 0  9996
2 37836   0.0638  13.7033 0006025 241.8263 269.6275  1.00272144  5320
